[{"OBJECT_NAME":"TIANMU-1 08","OBJECT_ID":"2023-101B","EPOCH":"2026-03-07T00:03:25.475616","MEAN_MOTION":15.29204229,"ECCENTRICITY":0.00063808,"INCLINATION":97.2717,"RA_OF_ASC_NODE":118.7901,"ARG_OF_PERICENTER":134.2174,"MEAN_ANOMALY":225.9592,"EPHEMERIS_TYPE":0,"CLASSIFICATION_TYPE":"U","NORAD_CAT_ID":57400,"ELEMENT_SET_NO":999,"REV_AT_EPOCH":14602,"BSTAR":1.4774513e-5,"MEAN_MOTION_DOT":3.46e-6,"MEAN_MOTION_DDOT":0},{"OBJECT_NAME":"FLOCK 4G-31","OBJECT_ID":"2025-009AV","EPOCH":"2026-03-09T17:55:44.365728","MEAN_MOTION":15.26963037,"ECCENTRICITY":5.975e-5,"INCLINATION":97.4007,"RA_OF_ASC_NODE":151.027,"ARG_OF_PERICENTER":42.5998,"MEAN_ANOMALY":317.5288,"EPHEMERIS_TYPE":0,"CLASSIFICATION_TYPE":"U","NORAD_CAT_ID":62652,"ELEMENT_SET_NO":999,"REV_AT_EPOCH":6372,"BSTAR":0.00048078603,"MEAN_MOTION_DOT":0.00012662,"MEAN_MOTION_DDOT":0}]
